      2.10          N: GNSS NAV DATA                        RINEX VERSION / TYPE
fic2rin                                 09/08/2023 00:18:23 PGM / RUN BY / DATE
                                                            END OF HEADER
3  23  9  7  2  0  0.0 -.148756429553D-03  .200088834390D-10  .000000000000D+00
     .100000000000D+02 -.622187500000D+02  .377015704217D-08  .228354005209D+01
    -.328943133354D-05  .513040705118D-02  .719353556633D-05  .515360873795D+04
     .352800000000D+06  .633299350739D-07  .154546481184D+01 -.875443220139D-07
     .980203042694D+00  .250343750000D+03  .110490380800D+01 -.769996359153D-08
     .224652214809D-09  .100000000000D+01  .227800000000D+04  .000000000000D+00
     .240000000000D+01  .000000000000D+00  .186264514923D-08  .100000000000D+02
     .345600000000D+06  .400000000000D+01
2  23  9  7  2  0  0.0 -.556903891265D-03  .432009983342D-11  .000000000000D+00
     .560000000000D+02 -.229375000000D+02  .426196324216D-08 -.103991863747D+00
    -.106915831566D-05  .160102009540D-01  .474229454994D-05  .515353643417D+04
     .352800000000D+06 -.327825546265D-06  .414891469964D+00 -.115483999252D-06
     .967782508323D+00  .296531250000D+03 -.134579741814D+01 -.830963184381D-08
    -.903609067516D-10  .100000000000D+01  .227800000000D+04  .000000000000D+00
     .240000000000D+01  .000000000000D+00 -.176951289177D-07  .560000000000D+02
     .345600000000D+06  .400000000000D+01
1  23  9  7  2  0  0.0  .166149344295D-03 -.102318153949D-11  .000000000000D+00
     .410000000000D+02 -.332187500000D+02  .362657963303D-08 -.279817255841D+01
    -.160187482834D-05  .128750513541D-01  .466220080853D-05  .515364066696D+04
     .352800000000D+06  .102445483208D-06  .515710078606D+00 -.115483999252D-06
     .990460981841D+00  .303343750000D+03  .992679595124D+00 -.761138847345D-08
    -.250010413937D-10  .100000000000D+01  .227800000000D+04  .000000000000D+00
     .240000000000D+01  .630000000000D+02  .512227416039D-08  .410000000000D+02
     .345600000000D+06  .400000000000D+01
5  23  9  7  2  0  0.0 -.141738913953D-03 -.147792889038D-11  .000000000000D+00
     .530000000000D+02 -.702187500000D+02  .408409869053D-08 -.279528928439D+00
    -.352971255779D-05  .606490334030D-02  .797584652901D-05  .515372808838D+04
     .352800000000D+06 -.540167093277D-07  .149753874659D+01  .132247805595D-06
     .967224345096D+00  .228750000000D+03  .122076280615D+01 -.794818821680D-08
     .274297139863D-09  .100000000000D+01  .227800000000D+04  .000000000000D+00
     .240000000000D+01  .000000000000D+00 -.111758708954D-07  .530000000000D+02
     .345600000000D+06  .400000000000D+01
4  23  9  7  2  0  0.0  .148497056216D-03  .112549969344D-10  .000000000000D+00
     .240000000000D+02 -.231875000000D+02  .450018745087D-08 -.984765411661D+00
    -.131689012051D-05  .252733053640D-02  .774301588535D-05  .515362438202D+04
     .352800000000D+06  .223517417908D-07  .262616762018D+01 -.260770320892D-07
     .963547641364D+00  .227843750000D+03 -.303687551456D+01 -.794461663946D-08
     .338228374284D-09  .100000000000D+01  .227800000000D+04  .000000000000D+00
     .240000000000D+01  .000000000000D+00 -.419095158577D-08  .280000000000D+03
     .345600000000D+06  .400000000000D+01
20 23  9  7 10  0  0.0  .413146335632D-03 -.193267624127D-11  .000000000000D+00
     .380000000000D+02 -.855625000000D+02  .463947896721D-08  .226195968439D+01
    -.442378222942D-05  .406768545508D-02  .652857124805D-05  .515361876869D+04
     .381600000000D+06 -.987201929092D-07  .137302711465D+01  .260770320892D-07
     .949764821586D+00  .251843750000D+03 -.285648061387D+01 -.813212444991D-08
    -.414302971667D-10  .100000000000D+01  .227800000000D+04  .000000000000D+00
     .240000000000D+01  .000000000000D+00 -.838190317154D-08  .380000000000D+02
     .374400000000D+06  .400000000000D+01
22 23  9  7 10  0  0.0  .126556959003D-03 -.738964445191D-11  .000000000000D+00
     .860000000000D+02  .765937500000D+02  .427946397114D-08 -.214842922757D+01
     .425055623055D-05  .153462151065D-01  .842660665512D-05  .515361484337D+04
     .381600000000D+06  .279396772385D-07 -.150649069634D+01  .301748514175D-06
     .963081125566D+00  .215218750000D+03 -.119131914405D+01 -.769710632966D-08
    -.109647424398D-09  .100000000000D+01  .227800000000D+04  .000000000000D+00
     .340000000000D+01  .000000000000D+00 -.111758708954D-07  .860000000000D+02
     .374400000000D+06  .400000000000D+01
26 23  9  7 10  0  0.0  .229647383094D-03 -.170530256582D-11  .000000000000D+00
     .610000000000D+02  .438125000000D+02  .505913930489D-08 -.880315041592D+00
     .237673521042D-05  .814156723209D-02  .741146504879D-05  .515374770164D+04
     .381600000000D+06  .223517417908D-06 -.166915367378D+01  .242143869400D-07
     .932750608875D+00  .217718750000D+03  .468579735461D+00 -.829034532616D-08
    -.125005206969D-09  .100000000000D+01  .227800000000D+04  .000000000000D+00
     .240000000000D+01  .000000000000D+00  .698491930962D-08  .610000000000D+02
     .374400000000D+06  .400000000000D+01
13 23  9  7 10  0  0.0  .569588970393D-03  .454747350886D-11  .000000000000D+00
     .640000000000D+02 -.314375000000D+02  .417445959728D-08 -.308256202924D+01
    -.155530869961D-05  .746204669122D-02  .817328691483D-05  .515366701126D+04
     .381600000000D+06  .465661287308D-07  .273030393978D+01 -.335276126862D-07
     .970493441816D+00  .225468750000D+03  .932803683543D+00 -.761174563119D-08
     .195008122871D-09  .100000000000D+01  .227800000000D+04  .000000000000D+00
     .240000000000D+01  .000000000000D+00 -.116415321827D-07  .640000000000D+02
     .374400000000D+06  .400000000000D+01
19 23  9  7 10  0  0.0  .368193723261D-03  .511590769747D-11  .000000000000D+00
     .580000000000D+02  .616875000000D+02  .441625538333D-08 -.627021954324D+00
     .313483178616D-05  .943921913859D-02  .493787229061D-05  .515364689255D+04
     .381600000000D+06 -.577419996262D-07 -.444033144814D+00 -.128522515297D-06
     .972028554902D+00  .291218750000D+03  .240717940450D+01 -.822355682986D-08
     .152149194768D-09  .100000000000D+01  .227800000000D+04  .000000000000D+00
     .240000000000D+01  .000000000000D+00 -.153668224812D-07  .580000000000D+02
     .374400000000D+06  .400000000000D+01
18 23  9  7 10  0  0.0 -.409161206335D-03 -.127329258248D-10  .000000000000D+00
     .132000000000D+03 -.204062500000D+02  .440196907397D-08  .154021187971D+01
    -.925734639168D-06  .368947559036D-02  .408291816711D-05  .515366443253D+04
     .381600000000D+06  .143423676491D-06  .514978196783D+00  .260770320892D-07
     .974348621554D+00  .306843750000D+03 -.311277687154D+01 -.818855537191D-08
    -.714315468392D-10  .100000000000D+01  .227800000000D+04  .000000000000D+00
     .240000000000D+01  .000000000000D+00 -.838190317154D-08  .132000000000D+03
     .374400000000D+06  .400000000000D+01
28 23  9  7 10  0  0.0 -.659143552184D-05 -.477484718431D-11  .000000000000D+00
     .196000000000D+03  .518750000000D+01  .444554231754D-08 -.674187041774D+00
     .370666384697D-06  .662905746140D-03  .765174627304D-05  .515373706627D+04
     .381600000000D+06 -.167638063431D-07 -.267930389158D+01  .167638063431D-07
     .961747270508D+00  .230843750000D+03  .158909063232D+01 -.790925802377D-08
    -.346443002170D-10  .100000000000D+01  .227800000000D+04  .000000000000D+00
     .240000000000D+01  .000000000000D+00 -.977888703346D-08  .196000000000D+03
     .374400000000D+06  .400000000000D+01
29 23  9  7 10  0  0.0 -.609004870057D-03 -.454747350886D-12  .000000000000D+00
     .184000000000D+03  .626562500000D+02  .429767901558D-08 -.279598432847D+01
     .342912971973D-05  .261504482478D-02  .553019344807D-05  .515371963501D+04
     .381600000000D+06 -.540167093277D-07 -.474154165784D+00  .298023223877D-07
     .975213880544D+00  .281937500000D+03  .255356569792D+01 -.794747390133D-08
     .100718481043D-09  .100000000000D+01  .227800000000D+04  .000000000000D+00
     .340000000000D+01  .000000000000D+00 -.977888703346D-08  .184000000000D+03
     .374400000000D+06  .400000000000D+01
16 23  9  7 10  0  0.0 -.457657501101D-03  .534328137292D-11  .000000000000D+00
     .150000000000D+03  .621562500000D+02  .432160858377D-08 -.174279349985D+01
     .303052365780D-05  .133655765094D-01  .733695924282D-05  .515365354156D+04
     .381600000000D+06  .210478901863D-06 -.150980718868D+01 -.147148966789D-06
     .963815149101D+00  .232750000000D+03  .793792840841D+00 -.773425073402D-08
     .125005206969D-10  .100000000000D+01  .227800000000D+04  .000000000000D+00
     .340000000000D+01  .000000000000D+00 -.102445483208D-07  .150000000000D+03
     .374400000000D+06  .400000000000D+01
14 23  9  7 10  0  0.0  .177608337253D-03  .114823706099D-10  .000000000000D+00
     .720000000000D+02  .634062500000D+02  .473626871317D-08 -.417783553676D-01
     .336021184921D-05  .354926974978D-02  .816397368908D-05  .515367960167D+04
     .381600000000D+06  .391155481339D-07 -.156828105713D+01 -.931322574615D-08
     .947529313062D+00  .215218750000D+03 -.294710994835D+01 -.810212320024D-08
    -.118576367753D-09  .100000000000D+01  .227800000000D+04  .000000000000D+00
     .240000000000D+01  .000000000000D+00 -.791624188423D-08  .840000000000D+03
     .374400000000D+06  .400000000000D+01
